IRIDIUM 155             
1 43573U 18061E   20145.72807975  .00000078  00000-0  20635-4 0  9990
2 43573  86.3974 262.0964 0002571  82.7991 277.3497 14.34216954 95957
IRIDIUM 154             
1 43574U 18061F   20146.75558154  .00000076  00000-0  19929-4 0  9999
2 43574  86.3979 261.6957 0002301 102.3908 257.7545 14.34216769 96151
IRIDIUM 163             
1 43575U 18061G   20145.27142238  .00000058  00000-0  13637-4 0  9998
2 43575  86.3975 262.2985 0001599  96.9226 263.2151 14.34216364 95914
IRIDIUM 156             
1 43576U 18061H   20146.71118511  .00000081  00000-0  21895-4 0  9997
2 43576  86.3977 261.7014 0001991  86.6865 273.4559 14.34216550 96110
IRIDIUM 164             
1 43577U 18061J   20145.50608931  .00000067  00000-0  16872-4 0  9997
2 43577  86.3976 262.2117 0002127 100.8576 259.2859 14.34219899 95988
IRIDIUM 159             
1 43578U 18061K   20146.86974752  .00000070  00000-0  17924-4 0  9998
2 43578  86.3976 261.6252 0002225  99.7612 260.3835 14.34219717 96143
IRIDIUM 180             
1 43922U 19002A   20146.17155412  .00000081  00000-0  21972-4 0  9995
2 43922  86.4012 198.8115 0002226 123.6896 236.4512 14.34219823 71652
IRIDIUM 176             
1 43923U 19002B   20146.58673035  .00000133  00000-0  17174-4 0  9994
2 43923  86.6148 198.6627 0002440  95.8660 264.2835 14.72255541 73566
IRIDIUM 168             
1 43924U 19002C   20146.16521711  .00000074  00000-0  19464-4 0  9990
2 43924  86.4014 198.8286 0002371 101.1172 259.0290 14.34217347 71635
IRIDIUM 173             
1 43925U 19002D   20146.64091705  .00000074  00000-0  19519-4 0  9990
2 43925  86.4010 198.6090 0002281  98.3153 261.8302 14.34216407 71696
IRIDIUM 169             
1 43926U 19002E   20145.24873685  .00000101  00000-0  26519-4 0  9990
2 43926  86.4270 230.7352 0007373  78.6205 281.5821 14.38606661 71784
IRIDIUM 172             
1 43927U 19002F   20146.28573491  .00000078  00000-0  20960-4 0  9995
2 43927  86.4012 198.7584 0002289 101.8046 258.3407 14.34216178 71645
IRIDIUM 175             
1 43928U 19002G   20146.51257265  .00000127  00000-0  16226-4 0  9995
2 43928  86.6132 198.5902 0002424  72.1339 288.0142 14.72255761 73549
IRIDIUM 171             
1 43929U 19002H   20145.22015628  .00000050  00000-0  10631-4 0  9997
2 43929  86.4022 199.2631 0002384 101.5750 258.5713 14.34215408 71481
IRIDIUM 170             
1 43930U 19002J   20146.52488991  .00000131  00000-0  16907-4 0  9992
2 43930  86.6148 198.6955 0002220  91.0813 269.0658 14.72255198 73566
IRIDIUM 167             
1 43931U 19002K   20145.70220664  .00000078  00000-0  20630-4 0  9991
2 43931  86.4012 199.0047 0002300 119.1269 241.0157 14.34219770 71553
